COSMOS 2588             
1 64095U 25109A   26068.81179522  .00009169  00000+0  32611-3 0  9998
2 64095  72.9704  73.5401 0005019 308.6780  51.3966 15.29122656 44425
STARLINK-35936          
1 66620U 25271D   26068.56612097  .00025207  00000+0  86062-3 0  9995
2 66620  53.1578 140.8022 0001189  86.5990 273.5147 15.30187874 17544
